ONEWEB-0656             
1 55817U 23029X   25356.84228740 -.00000013  00000+0 -64125-4 0  9995
2 55817  87.9217 309.5976 0001882  93.7459 266.3890 13.20771097137874
ONEWEB-0657             
1 55818U 23029Y   25356.95056620  .00000061  00000+0  12070-3 0  9996
2 55818  87.9198 340.0493 0001203 106.4712 253.6553 13.19727844135667
ONEWEB-0658             
1 55819U 23029Z   25356.41511594  .00000013  00000+0  61842-6 0  9995
2 55819  87.9212 340.1113 0001742  71.0660 289.0661 13.19726037135602
ONEWEB-0660             
1 55820U 23029AA  25357.21844434  .00000189  00000+0  47518-3 0  9993
2 55820  87.9004 324.7518 0002099  78.0290 282.1075 13.14503370136288
ONEWEB-0661             
1 55821U 23029AB  25357.17721352 -.00000123  00000+0 -36740-3 0  9997
2 55821  87.8997 324.8243 0002123  80.5245 279.6125 13.14500955136262
ONEWEB-0662             
1 55822U 23029AC  25357.21211524  .00000299  00000+0  77111-3 0  9997
2 55822  87.9002 324.8238 0002058  76.6609 283.4750 13.14500657136314
ONEWEB-0663             
1 55823U 23029AD  25356.81268593  .00000077  00000+0  15760-3 0  9997
2 55823  87.9232 309.6707 0002102  70.0576 290.0784 13.20854291137868
ONEWEB-0664             
1 55824U 23029AE  25356.82965513  .00000048  00000+0  86239-4 0  9993
2 55824  87.9216 309.6712 0002183  84.7946 275.3436 13.20770337137867
